{
  "type": "FeatureCollection",
  "features": [
    {
      "type": "Feature",
      "properties": {
        "norad_id": 31175,
        "name": "FENGYUN 1C DEB",
        "group": "fengyun-1c-debris",
        "lat": -81.12304272720903,
        "lon": 70.81712361985663,
        "alt_km": 742.7735145209799,
        "timestamp": "2025-12-25T09:48:52.570905+00:00",
        "meta_object_name": "FENGYUN 1C DEB",
        "meta_object_id": "1999-025BJD",
        "meta_epoch": "2025-12-24T17:46:33.318624",
        "meta_mean_motion": 14.60492122,
        "meta_eccentricity": 0.00744317,
        "meta_inclination": 98.3983,
        "meta_ra_of_asc_node": 359.0723,
        "meta_arg_of_pericenter": 128.0942,
        "meta_mean_anomaly": 232.7001,
        "meta_ephemeris_type": 0,
        "meta_classification_type": "U",
        "meta_norad_cat_id": 31175,
        "meta_element_set_no": 999,
        "meta_rev_at_epoch": 65814,
        "meta_bstar": 0.0040419148,
        "meta_mean_motion_dot": 0.0002039,
        "meta_mean_motion_ddot": 0,
        "tle_line1": "1 31175U 99025BJD 25358.74066341  .00020390  00000+0  40419-2 0  9999",
        "tle_line2": "2 31175  98.3983 359.0723 0074431 128.0942 232.7001 14.60492122658143"
      },
      "geometry": {
        "type": "Point",
        "coordinates": [
          70.81712361985663,
          -81.12304272720903
        ]
      }
    },
    {
      "type": "Feature",
      "properties": {
        "norad_id": 31177,
        "name": "FENGYUN 1C DEB",
        "group": "fengyun-1c-debris",
        "lat": 61.87967824839064,
        "lon": 108.35517269779693,
        "alt_km": 1239.7580307588314,
        "timestamp": "2025-12-25T09:48:52.570915+00:00",
        "meta_object_name": "FENGYUN 1C DEB",
        "meta_object_id": "1999-025BJF",
        "meta_epoch": "2025-12-23T05:09:05.978592",
        "meta_mean_motion": 13.62419346,
        "meta_eccentricity": 0.03079136,
        "meta_inclination": 98.7579,
        "meta_ra_of_asc_node": 269.6149,
        "meta_arg_of_pericenter": 286.8418,
        "meta_mean_anomaly": 234.2152,
        "meta_ephemeris_type": 0,
        "meta_classification_type": "U",
        "meta_norad_cat_id": 31177,
        "meta_element_set_no": 999,
        "meta_rev_at_epoch": 66354,
        "meta_bstar": 0.0047506015,
        "meta_mean_motion_dot": 5.027e-05,
        "meta_mean_motion_ddot": 0,
        "tle_line1": "1 31177U 99025BJF 25357.21465253  .00005027  00000+0  47506-2 0  9991",
        "tle_line2": "2 31177  98.7579 269.6149 0307913 286.8418 234.2152 13.62419346663545"
      },
      "geometry": {
        "type": "Point",
        "coordinates": [
          108.35517269779693,
          61.87967824839064
        ]
      }
    },
    {
      "type": "Feature",
      "properties": {
        "norad_id": 31178,
        "name": "FENGYUN 1C DEB",
        "group": "fengyun-1c-debris",
        "lat": 41.06218094589764,
        "lon": -5.760508555283595,
        "alt_km": 861.3713293957244,
        "timestamp": "2025-12-25T09:48:52.570925+00:00",
        "meta_object_name": "FENGYUN 1C DEB",
        "meta_object_id": "1999-025BJG",
        "meta_epoch": "2025-12-24T18:25:23.466144",
        "meta_mean_motion": 14.22312669,
        "meta_eccentricity": 0.01257039,
        "meta_inclination": 99.5133,
        "meta_ra_of_asc_node": 1.9482,
        "meta_arg_of_pericenter": 281.5978,
        "meta_mean_anomaly": 77.1109,
        "meta_ephemeris_type": 0,
        "meta_classification_type": "U",
        "meta_norad_cat_id": 31178,
        "meta_element_set_no": 999,
        "meta_rev_at_epoch": 95986,
        "meta_bstar": 0.0018200205,
        "meta_mean_motion_dot": 4.336e-05,
        "meta_mean_motion_ddot": 0,
        "tle_line1": "1 31178U 99025BJG 25358.76763271  .00004336  00000+0  18200-2 0  9995",
        "tle_line2": "2 31178  99.5133   1.9482 0125703 281.5978  77.1109 14.22312669959862"
      },
      "geometry": {
        "type": "Point",
        "coordinates": [
          -5.760508555283595,
          41.06218094589764
        ]
      }
    },
    {
      "type": "Feature",
      "properties": {
        "norad_id": 31179,
        "name": "FENGYUN 1C DEB",
        "group": "fengyun-1c-debris",
        "lat": -51.43456802583443,
        "lon": 30.488954556917832,
        "alt_km": 779.3266198929214,
        "timestamp": "2025-12-25T09:48:52.570935+00:00",
        "meta_object_name": "FENGYUN 1C DEB",
        "meta_object_id": "1999-025BJH",
        "meta_epoch": "2025-12-18T07:16:13.358496",
        "meta_mean_motion": 13.91941548,
        "meta_eccentricity": 0.02152306,
        "meta_inclination": 99.0195,
        "meta_ra_of_asc_node": 12.0814,
        "meta_arg_of_pericenter": 345.6132,
        "meta_mean_anomaly": 13.8961,
        "meta_ephemeris_type": 0,
        "meta_classification_type": "U",
        "meta_norad_cat_id": 31179,
        "meta_element_set_no": 999,
        "meta_rev_at_epoch": 62018,
        "meta_bstar": 0.00082156675,
        "meta_mean_motion_dot": 1.222e-05,
        "meta_mean_motion_ddot": 0,
        "tle_line1": "1 31179U 99025BJH 25352.30293239  .00001222  00000+0  82157-3 0  9996",
        "tle_line2": "2 31179  99.0195  12.0814 0215230 345.6132  13.8961 13.91941548620189"
      },
      "geometry": {
        "type": "Point",
        "coordinates": [
          30.488954556917832,
          -51.43456802583443
        ]
      }
    },
    {
      "type": "Feature",
      "properties": {
        "norad_id": 31180,
        "name": "FENGYUN 1C DEB",
        "group": "fengyun-1c-debris",
        "lat": 21.249805526017866,
        "lon": -45.8998491469226,
        "alt_km": 1231.054997372662,
        "timestamp": "2025-12-25T09:48:52.570945+00:00",
        "meta_object_name": "FENGYUN 1C DEB",
        "meta_object_id": "1999-025BJJ",
        "meta_epoch": "2025-12-22T03:05:53.129760",
        "meta_mean_motion": 13.70350099,
        "meta_eccentricity": 0.04980059,
        "meta_inclination": 99.2181,
        "meta_ra_of_asc_node": 127.3215,
        "meta_arg_of_pericenter": 35.423,
        "meta_mean_anomaly": 146.7673,
        "meta_ephemeris_type": 0,
        "meta_classification_type": "U",
        "meta_norad_cat_id": 31180,
        "meta_element_set_no": 999,
        "meta_rev_at_epoch": 64195,
        "meta_bstar": 0.00017414623,
        "meta_mean_motion_dot": 3.27e-06,
        "meta_mean_motion_ddot": 0,
        "tle_line1": "1 31180U 99025BJJ 25356.12908715  .00000327  00000+0  17415-3 0  9994",
        "tle_line2": "2 31180  99.2181 127.3215 0498005  35.4230 146.7673 13.70350099641955"
      },
      "geometry": {
        "type": "Point",
        "coordinates": [
          -45.8998491469226,
          21.249805526017866
        ]
      }
    },
    {
      "type": "Feature",
      "properties": {
        "norad_id": 31181,
        "name": "FENGYUN 1C DEB",
        "group": "fengyun-1c-debris",
        "lat": 44.07567180210893,
        "lon": -139.71100490964977,
        "alt_km": 852.7643972410324,
        "timestamp": "2025-12-25T09:48:52.570955+00:00",
        "meta_object_name": "FENGYUN 1C DEB",
        "meta_object_id": "1999-025BJK",
        "meta_epoch": "2025-12-24T01:00:26.112960",
        "meta_mean_motion": 14.11923145,
        "meta_eccentricity": 0.00473296,
        "meta_inclination": 98.7756,
        "meta_ra_of_asc_node": 30.3499,
        "meta_arg_of_pericenter": 42.4945,
        "meta_mean_anomaly": 347.8007,
        "meta_ephemeris_type": 0,
        "meta_classification_type": "U",
        "meta_norad_cat_id": 31181,
        "meta_element_set_no": 999,
        "meta_rev_at_epoch": 95927,
        "meta_bstar": 0.00087568947,
        "meta_mean_motion_dot": 1.575e-05,
        "meta_mean_motion_ddot": 0,
        "tle_line1": "1 31181U 99025BJK 25358.04196890  .00001575  00000+0  87569-3 0  9994",
        "tle_line2": "2 31181  98.7756  30.3499 0047329  42.4945 347.8007 14.11923145959271"
      },
      "geometry": {
        "type": "Point",
        "coordinates": [
          -139.71100490964977,
          44.07567180210893
        ]
      }
    },
    {
      "type": "Feature",
      "properties": {
        "norad_id": 31182,
        "name": "FENGYUN 1C DEB",
        "group": "fengyun-1c-debris",
        "lat": 46.95248339348742,
        "lon": -21.483636432772634,
        "alt_km": 829.4516875074914,
        "timestamp": "2025-12-25T09:48:52.570965+00:00",
        "meta_object_name": "FENGYUN 1C DEB",
        "meta_object_id": "1999-025BJL",
        "meta_epoch": "2025-12-22T19:20:53.254752",
        "meta_mean_motion": 14.1456637,
        "meta_eccentricity": 0.00235309,
        "meta_inclination": 98.6826,
        "meta_ra_of_asc_node": 345.4013,
        "meta_arg_of_pericenter": 108.6535,
        "meta_mean_anomaly": 12.2806,
        "meta_ephemeris_type": 0,
        "meta_classification_type": "U",
        "meta_norad_cat_id": 31182,
        "meta_element_set_no": 999,
        "meta_rev_at_epoch": 96223,
        "meta_bstar": 0.00031151956,
        "meta_mean_motion_dot": 5.57e-06,
        "meta_mean_motion_ddot": 0,
        "tle_line1": "1 31182U 99025BJL 25356.80617193  .00000557  00000+0  31152-3 0  9997",
        "tle_line2": "2 31182  98.6826 345.4013 0023530 108.6535  12.2806 14.14566370962235"
      },
      "geometry": {
        "type": "Point",
        "coordinates": [
          -21.483636432772634,
          46.95248339348742
        ]
      }
    }
  ]
}